TOMORROW-S2             
1 60485U 24149T   26068.75188364  .00008133  00000+0  27683-3 0  9990
2 60485  97.3857 150.0385 0001648 234.3331 125.7757 15.30674935 86869
STARLINK-35868          
1 66579U 25268Y   26068.18552235  .00027892  00000+0  10189-2 0  9997
2 66579  43.0033 349.8208 0003031 249.1192 110.9336 15.27589789 17885
